ARIANE 5 R/B            
1 28499U 04049H   26059.06631600  .00000826  00000+0  97363-4 0  9990
2 28499  98.2611 227.1642 0084633  23.0906 337.4076 14.85244652144368
CZ-2D R/B               
1 28738U 05024B   26059.02127237  .00042508  00000+0  54204-3 0  9991
2 28738  97.3609  73.8203 0007133  70.0393 290.1631 15.59163982138275
ALOS (DAICHI)           
1 28931U 06002A   26059.10821240  .00001508  00000+0  26107-3 0  9993
2 28931  98.1202  15.1131 0001325  52.4785 307.6541 14.69772709 72075
H-2A R/B                
1 28932U 06002B   26058.97441390  .00009314  00000+0  47016-3 0  9997
2 28932  98.2384 205.1659 0051920 274.4944  85.0357 15.16175608 92963
RESURS-DK 1             
1 29228U 06021A   26059.01337800  .00002601  00000+0  15446-3 0  9997
2 29228  69.9306 262.0548 0002661 167.5975 192.5256 15.12671233 86061
CZ-4B R/B               
1 29507U 06046C   26059.10980330  .00005018  00000+0  25577-3 0  9997
2 29507  97.5619 104.0444 0031859 302.2934  57.5214 15.16788202 58599
CZ-2C R/B               
1 31114U 07010B   26059.14466392  .00000119  00000+0  73903-4 0  9991
2 31114  98.3976 172.9023 0058189 322.8549  36.8609 14.20242290978363
COSMO-SKYMED 1          
1 31598U 07023A   26059.16973373  .00003056  00000+0  27458-3 0  9991
2 31598  97.8872 250.1263 0001023  81.8584 278.2753 14.96449387 13483
COSMOS 2428             
1 31792U 07029A   26058.90658845  .00000133  00000+0  96852-4 0  9996
2 31792  70.9413 223.8776 0008537 287.6832  72.3357 14.12943348962713
SL-16 R/B               
1 31793U 07029B   26059.11174409 -.00000237  00000+0 -97735-4 0  9998
2 31793  70.9756 192.5163 0002462 279.6673 253.2749 14.14834755964014
KORONAS-FOTON           
1 33504U 09003A   26059.10268154  .00012787  00000+0  28825-3 0  9998
2 33504  82.4295 285.8443 0010414 182.5261 177.5936 15.43052877944261
CZ-2C R/B               
1 37731U 11030B   26059.14487735  .00001809  00000+0  23378-3 0  9990
2 37731  97.8526  16.6006 0053321  22.9827 347.6740 14.81176570788681
H-2A R/B                
1 38341U 12025E   26059.15835120  .00004148  00000+0  37760-3 0  9998
2 38341  98.4702  25.4435 0044364 345.6465  14.3490 14.95066471746795
SHIJIAN-16 (SJ-16)      
1 39358U 13057A   26059.17636563  .00002006  00000+0  19875-3 0  9993
2 39358  74.9715 203.0957 0015878 137.1088 223.1342 14.92293179670081
SL-4 R/B                
1 39679U 14021B   26059.14843389  .00015742  00000+0  35045-3 0  9992
2 39679  51.6076  23.8117 0098326  68.1777 292.9631 15.38809380654807
ALOS-2                  
1 39766U 14029A   26059.25028399  .00002133  00000+0  29247-3 0  9992
2 39766  97.9198 157.9838 0001502  97.2316 262.9067 14.79460374635475
YAOGAN-29               
1 41038U 15069A   26059.21339627  .00000201  00000+0  31421-4 0  9999
2 41038  98.0163  87.6175 0002415  51.4960 308.6470 14.82981331554479
ASTRO-H (HITOMI)        
1 41337U 16012A   26059.18116405  .00003757  00000+0  22017-3 0  9992
2 41337  31.0000  57.9036 0010012 236.7408 123.2271 15.09923218550792
HXMT (HUIYAN)           
1 42758U 17034A   26059.16708608  .00006029  00000+0  30472-3 0  9994
2 42758  43.0148  69.6087 0031751 176.8977 183.2073 15.17320265481094
CZ-2C R/B               
1 43521U 18054D   26059.19164949  .05758169  14813-5  64760-3 0  9997
2 43521  35.1189   3.8055 0006750 238.6763 121.3328 16.35845045427383
SAOCOM 1A               
1 43641U 18076A   26059.17402689  .00000181  00000+0  29341-4 0  9991
2 43641  97.8891 247.4805 0001330  79.7720 280.3643 14.82155932399952
H-2A R/B                
1 43682U 18084L   26059.12336395  .00020646  00000+0  49877-3 0  9993
2 43682  98.8747 274.4698 0026060  57.6716 302.7044 15.40871117404300
SAOCOM 1B               
1 46265U 20059A   26059.13774976  .00000589  00000+0  80580-4 0  9991
2 46265  97.8888 246.5425 0001462  85.0569 275.0811 14.82159886297337
CSS (TIANHE)            
1 48274U 21035A   26059.05129099  .00025114  00000+0  30234-3 0  9990
2 48274  41.4655 266.7888 0006233 212.0372 148.0088 15.60212103276104
COSMOS 2550             
1 48865U 21056A   26059.19264726 -.00000182  00000+0  28906-6 0  9996
2 48865  67.1422  69.6588 0008364 269.5396  90.4800 15.33825007262003
CZ-2C R/B               
1 52794U 22058K   26059.12331350  .00030077  00000+0  45307-3 0  9992
2 52794  50.1902   7.4692 0042135 160.0237 200.2394 15.53468021208643
CZ-2C R/B               
1 54039U 22132E   26058.95042925  .00043802  00000+0  51828-3 0  9991
2 54039  97.2965  61.9793 0020610 122.3536 237.9720 15.60890575188853
GSLV R/B                
1 54149U 22138AN  26059.02648267  .00003579  00000+0  30980-3 0  9992
2 54149  87.3878 169.5957 0021647 180.4073 179.7144 14.96688855182487
XRISM                   
1 57800U 23137A   26059.13083947  .00006227  00000+0  35428-3 0  9994
2 57800  31.0035 345.4840 0008246 302.8002  57.1842 15.11364518136346
ACS3                    
1 59588U 24077B   26058.84767936  .00021978  00000+0  17873-1 0  9999
2 59588  97.2118   2.1724 0053201 103.7827 256.9265 13.89124060 92831
SZ-21 MODULE            
1 66515U 25246C   26058.62877085  .00034956  00000+0  31215-3 0  9997
2 66515  41.4741 265.2557 0001443 287.0707  72.9977 15.67676592 16496
